{"type": "FeatureCollection", "features": [{"type": "Feature", "properties": {"norad_id": 24946, "name": "IRIDIUM 33", "group": "iridium-33-debris", "lat": 34.44637806050111, "lon": 71.65325354100744, "alt_km": 777.5894964931476, "timestamp": "2025-12-10T11:33:53.768954+00:00", "meta": {"OBJECT_NAME": "IRIDIUM 33", "OBJECT_ID": "1997-051C", "EPOCH": "2025-12-10T04:42:37.391040", "MEAN_MOTION": 14.35034316, "ECCENTRICITY": 0.0006746, "INCLINATION": 86.3869, "RA_OF_ASC_NODE": 69.2892, "ARG_OF_PERICENTER": 209.6544, "MEAN_ANOMALY": 150.427, "EPHEMERIS_TYPE": 0, "CLASSIFICATION_TYPE": "U", "NORAD_CAT_ID": 24946, "ELEMENT_SET_NO": 999, "REV_AT_EPOCH": 47798, "BSTAR": 0.00018082, "MEAN_MOTION_DOT": 5.35e-06, "MEAN_MOTION_DDOT": 0}, "tle": {"line1": "1 24946U 97051C   25344.19626610  .00000535  00000+0  18082-3 0  9990", "line2": "2 24946  86.3869  69.2892 0006746 209.6544 150.4270 14.35034316477980"}}, "geometry": {"type": "Point", "coordinates": [71.65325354100744, 34.44637806050111]}}, {"type": "Feature", "properties": {"norad_id": 33773, "name": "IRIDIUM 33 DEB", "group": "iridium-33-debris", "lat": -74.58917961750832, "lon": 48.34931148584712, "alt_km": 761.0477034882642, "timestamp": "2025-12-10T11:33:53.768981+00:00", "meta": {"OBJECT_NAME": "IRIDIUM 33 DEB", "OBJECT_ID": "1997-051L", "EPOCH": "2025-12-10T03:35:34.466208", "MEAN_MOTION": 14.43247555, "ECCENTRICITY": 0.0012249, "INCLINATION": 86.4014, "RA_OF_ASC_NODE": 61.6871, "ARG_OF_PERICENTER": 153.9994, "MEAN_ANOMALY": 206.1825, "EPHEMERIS_TYPE": 0, "CLASSIFICATION_TYPE": "U", "NORAD_CAT_ID": 33773, "ELEMENT_SET_NO": 999, "REV_AT_EPOCH": 88310, "BSTAR": 0.00046361, "MEAN_MOTION_DOT": 1.58e-05, "MEAN_MOTION_DDOT": 0}, "tle": {"line1": "1 33773U 97051L   25344.14970447  .00001580  00000+0  46361-3 0  9995", "line2": "2 33773  86.4014  61.6871 0012249 153.9994 206.1825 14.43247555883109"}}, "geometry": {"type": "Point", "coordinates": [48.34931148584712, -74.58917961750832]}}, {"type": "Feature", "properties": {"norad_id": 33775, "name": "IRIDIUM 33 DEB", "group": "iridium-33-debris", "lat": 22.686909675211375, "lon": 52.040879880732014, "alt_km": 760.8402563034724, "timestamp": "2025-12-10T11:33:53.768996+00:00", "meta": {"OBJECT_NAME": "IRIDIUM 33 DEB", "OBJECT_ID": "1997-051N", "EPOCH": "2025-12-09T14:26:01.423104", "MEAN_MOTION": 14.41458737, "ECCENTRICITY": 0.0013944, "INCLINATION": 86.364, "RA_OF_ASC_NODE": 50.8934, "ARG_OF_PERICENTER": 164.3139, "MEAN_ANOMALY": 332.5697, "EPHEMERIS_TYPE": 0, "CLASSIFICATION_TYPE": "U", "NORAD_CAT_ID": 33775, "ELEMENT_SET_NO": 999, "REV_AT_EPOCH": 88095, "BSTAR": 0.00057548, "MEAN_MOTION_DOT": 1.888e-05, "MEAN_MOTION_DDOT": 0}, "tle": {"line1": "1 33775U 97051N   25343.60140536  .00001888  00000+0  57548-3 0  9995", "line2": "2 33775  86.3640  50.8934 0013944 164.3139 332.5697 14.41458737880950"}}, "geometry": {"type": "Point", "coordinates": [52.040879880732014, 22.686909675211375]}}, {"type": "Feature", "properties": {"norad_id": 33776, "name": "IRIDIUM 33 DEB", "group": "iridium-33-debris", "lat": -80.29318287349305, "lon": 60.15314467951008, "alt_km": 770.2342460204627, "timestamp": "2025-12-10T11:33:53.769023+00:00", "meta": {"OBJECT_NAME": "IRIDIUM 33 DEB", "OBJECT_ID": "1997-051P", "EPOCH": "2025-12-09T18:17:03.768288", "MEAN_MOTION": 14.38227801, "ECCENTRICITY": 0.0013985, "INCLINATION": 86.4038, "RA_OF_ASC_NODE": 82.0263, "ARG_OF_PERICENTER": 200.3153, "MEAN_ANOMALY": 312.9237, "EPHEMERIS_TYPE": 0, "CLASSIFICATION_TYPE": "U", "NORAD_CAT_ID": 33776, "ELEMENT_SET_NO": 999, "REV_AT_EPOCH": 88039, "BSTAR": 0.00057833, "MEAN_MOTION_DOT": 1.777e-05, "MEAN_MOTION_DDOT": 0}, "tle": {"line1": "1 33776U 97051P   25343.76184917  .00001777  00000+0  57833-3 0  9998", "line2": "2 33776  86.4038  82.0263 0013985 200.3153 312.9237 14.38227801880399"}}, "geometry": {"type": "Point", "coordinates": [60.15314467951008, -80.29318287349305]}}, {"type": "Feature", "properties": {"norad_id": 33777, "name": "IRIDIUM 33 DEB", "group": "iridium-33-debris", "lat": -74.01165204305194, "lon": 23.415037193558515, "alt_km": 711.6296832007583, "timestamp": "2025-12-10T11:33:53.769037+00:00", "meta": {"OBJECT_NAME": "IRIDIUM 33 DEB", "OBJECT_ID": "1997-051Q", "EPOCH": "2025-12-10T03:39:24.506208", "MEAN_MOTION": 14.55582822, "ECCENTRICITY": 0.0005073, "INCLINATION": 86.3784, "RA_OF_ASC_NODE": 36.3287, "ARG_OF_PERICENTER": 261.0241, "MEAN_ANOMALY": 99.0393, "EPHEMERIS_TYPE": 0, "CLASSIFICATION_TYPE": "U", "NORAD_CAT_ID": 33777, "ELEMENT_SET_NO": 999, "REV_AT_EPOCH": 88496, "BSTAR": 0.0012422, "MEAN_MOTION_DOT": 5.436e-05, "MEAN_MOTION_DDOT": 0}, "tle": {"line1": "1 33777U 97051Q   25344.15236697  .00005436  00000+0  12422-2 0  9996", "line2": "2 33777  86.3784  36.3287 0005073 261.0241  99.0393 14.55582822884965"}}, "geometry": {"type": "Point", "coordinates": [23.415037193558515, -74.01165204305194]}}, {"type": "Feature", "properties": {"norad_id": 33850, "name": "IRIDIUM 33 DEB", "group": "iridium-33-debris", "lat": -1.7972780644849438, "lon": 31.035634767611878, "alt_km": 763.1152565652255, "timestamp": "2025-12-10T11:33:53.769049+00:00", "meta": {"OBJECT_NAME": "IRIDIUM 33 DEB", "OBJECT_ID": "1997-051T", "EPOCH": "2025-12-10T03:29:36.109248", "MEAN_MOTION": 14.42137967, "ECCENTRICITY": 0.0011953, "INCLINATION": 86.3419, "RA_OF_ASC_NODE": 31.2952, "ARG_OF_PERICENTER": 168.989, "MEAN_ANOMALY": 244.4174, "EPHEMERIS_TYPE": 0, "CLASSIFICATION_TYPE": "U", "NORAD_CAT_ID": 33850, "ELEMENT_SET_NO": 999, "REV_AT_EPOCH": 88115, "BSTAR": 0.0004704, "MEAN_MOTION_DOT": 1.567e-05, "MEAN_MOTION_DDOT": 0}, "tle": {"line1": "1 33850U 97051T   25344.14555682  .00001567  00000+0  47040-3 0  9991", "line2": "2 33850  86.3419  31.2952 0011953 168.9890 244.4174 14.42137967881157"}}, "geometry": {"type": "Point", "coordinates": [31.035634767611878, -1.7972780644849438]}}, {"type": "Feature", "properties": {"norad_id": 33853, "name": "IRIDIUM 33 DEB", "group": "iridium-33-debris", "lat": 12.818112107034931, "lon": -8.286247995940846, "alt_km": 993.510384865006, "timestamp": "2025-12-10T11:33:53.769061+00:00", "meta": {"OBJECT_NAME": "IRIDIUM 33 DEB", "OBJECT_ID": "1997-051W", "EPOCH": "2025-12-09T12:13:24.016800", "MEAN_MOTION": 13.99031995, "ECCENTRICITY": 0.02069783, "INCLINATION": 85.9998, "RA_OF_ASC_NODE": 351.2277, "ARG_OF_PERICENTER": 245.8173, "MEAN_ANOMALY": 269.932, "EPHEMERIS_TYPE": 0, "CLASSIFICATION_TYPE": "U", "NORAD_CAT_ID": 33853, "ELEMENT_SET_NO": 999, "REV_AT_EPOCH": 85300, "BSTAR": 0.0029960339, "MEAN_MOTION_DOT": 5.22e-05, "MEAN_MOTION_DDOT": 0}, "tle": {"line1": "1 33853U 97051W   25343.50930575  .00005220  00000+0  29960-2 0  9991", "line2": "2 33853  85.9998 351.2277 0206978 245.8173 269.9320 13.99031995853007"}}, "geometry": {"type": "Point", "coordinates": [-8.286247995940846, 12.818112107034931]}}, {"type": "Feature", "properties": {"norad_id": 33860, "name": "IRIDIUM 33 DEB", "group": "iridium-33-debris", "lat": 85.73722313062808, "lon": 86.2880621543526, "alt_km": 661.3884831213045, "timestamp": "2025-12-10T11:33:53.769072+00:00", "meta": {"OBJECT_NAME": "IRIDIUM 33 DEB", "OBJECT_ID": "1997-051AD", "EPOCH": "2025-12-09T21:13:16.278816", "MEAN_MOTION": 14.67309939, "ECCENTRICITY": 0.0007825, "INCLINATION": 86.3835, "RA_OF_ASC_NODE": 28.5019, "ARG_OF_PERICENTER": 7.8125, "MEAN_ANOMALY": 164.8827, "EPHEMERIS_TYPE": 0, "CLASSIFICATION_TYPE": "U", "NORAD_CAT_ID": 33860, "ELEMENT_SET_NO": 999, "REV_AT_EPOCH": 88680, "BSTAR": 0.0019516, "MEAN_MOTION_DOT": 0.00011043, "MEAN_MOTION_DDOT": 0}, "tle": {"line1": "1 33860U 97051AD  25343.88421619  .00011043  00000+0  19516-2 0  9990", "line2": "2 33860  86.3835  28.5019 0007825   7.8125 164.8827 14.67309939886802"}}, "geometry": {"type": "Point", "coordinates": [86.2880621543526, 85.73722313062808]}}, {"type": "Feature", "properties": {"norad_id": 33862, "name": "IRIDIUM 33 DEB", "group": "iridium-33-debris", "lat": 73.40342233921005, "lon": -153.6386631870266, "alt_km": 623.0532398706318, "timestamp": "2025-12-10T11:33:53.769083+00:00", "meta": {"OBJECT_NAME": "IRIDIUM 33 DEB", "OBJECT_ID": "1997-051AF", "EPOCH": "2025-12-09T10:37:00.405120", "MEAN_MOTION": 14.69387938, "ECCENTRICITY": 0.00537298, "INCLINATION": 86.4087, "RA_OF_ASC_NODE": 38.984, "ARG_OF_PERICENTER": 80.2159, "MEAN_ANOMALY": 290.4324, "EPHEMERIS_TYPE": 0, "CLASSIFICATION_TYPE": "U", "NORAD_CAT_ID": 33862, "ELEMENT_SET_NO": 999, "REV_AT_EPOCH": 88775, "BSTAR": 0.0018727165, "MEAN_MOTION_DOT": 0.00011351, "MEAN_MOTION_DDOT": 0}, "tle": {"line1": "1 33862U 97051AF  25343.44236580  .00011351  00000+0  18727-2 0  9990", "line2": "2 33862  86.4087  38.9840 0053729  80.2159 290.4324 14.69387938887757"}}, "geometry": {"type": "Point", "coordinates": [-153.6386631870266, 73.40342233921005]}}, {"type": "Feature", "properties": {"norad_id": 33866, "name": "IRIDIUM 33 DEB", "group": "iridium-33-debris", "lat": 10.132362391078606, "lon": -86.67172824619796, "alt_km": 727.1431781314195, "timestamp": "2025-12-10T11:33:53.769094+00:00", "meta": {"OBJECT_NAME": "IRIDIUM 33 DEB", "OBJECT_ID": "1997-051AK", "EPOCH": "2025-12-09T18:38:03.505344", "MEAN_MOTION": 14.25259754, "ECCENTRICITY": 0.0114241, "INCLINATION": 86.3, "RA_OF_ASC_NODE": 94.2893, "ARG_OF_PERICENTER": 170.8261, "MEAN_ANOMALY": 341.5576, "EPHEMERIS_TYPE": 0, "CLASSIFICATION_TYPE": "U", "NORAD_CAT_ID": 33866, "ELEMENT_SET_NO": 999, "REV_AT_EPOCH": 86768, "BSTAR": 0.0012073, "MEAN_MOTION_DOT": 3.058e-05, "MEAN_MOTION_DDOT": 0}, "tle": {"line1": "1 33866U 97051AK  25343.77642946  .00003058  00000+0  12073-2 0  9990", "line2": "2 33866  86.3000  94.2893 0114241 170.8261 341.5576 14.25259754867688"}}, "geometry": {"type": "Point", "coordinates": [-86.67172824619796, 10.132362391078606]}}]}